{
  "type": "FeatureCollection",
  "features": [
    {
      "type": "Feature",
      "properties": {
        "norad_id": 19071,
        "name": "OSCAR 32",
        "group": "nnss",
        "lat": -88.6418923857196,
        "lon": -176.92676718032067,
        "alt_km": 1236.3794107106187,
        "timestamp": "2025-12-20T03:42:47.661712+00:00",
        "meta_object_name": "OSCAR 32",
        "meta_object_id": "1988-033B",
        "meta_epoch": "2025-12-19T03:11:49.262784",
        "meta_mean_motion": 13.27954999,
        "meta_eccentricity": 0.01888457,
        "meta_inclination": 90.3211,
        "meta_ra_of_asc_node": 16.7231,
        "meta_arg_of_pericenter": 149.0701,
        "meta_mean_anomaly": 277.1442,
        "meta_ephemeris_type": 0,
        "meta_classification_type": "U",
        "meta_norad_cat_id": 19071,
        "meta_element_set_no": 999,
        "meta_rev_at_epoch": 82350,
        "meta_bstar": 0.0001634943,
        "meta_mean_motion_dot": 9.1e-07,
        "meta_mean_motion_ddot": 0,
        "tle_line1": "1 19071U 88033B   25353.13320906  .00000091  00000+0  16349-3 0  9997",
        "tle_line2": "2 19071  90.3211  16.7231 0188845 149.0701 277.1442 13.27954999823505"
      },
      "geometry": {
        "type": "Point",
        "coordinates": [
          -176.92676718032067,
          -88.6418923857196
        ]
      }
    },
    {
      "type": "Feature",
      "properties": {
        "norad_id": 19223,
        "name": "NOVA 2",
        "group": "nnss",
        "lat": -29.955455690197294,
        "lon": 78.25579101282337,
        "alt_km": 1159.106334978831,
        "timestamp": "2025-12-20T03:42:47.661723+00:00",
        "meta_object_name": "NOVA 2",
        "meta_object_id": "1988-052A",
        "meta_epoch": "2025-12-19T06:21:05.310720",
        "meta_mean_motion": 13.22936436,
        "meta_eccentricity": 0.0030033,
        "meta_inclination": 89.987,
        "meta_ra_of_asc_node": 78.2644,
        "meta_arg_of_pericenter": 358.9404,
        "meta_mean_anomaly": 54.7754,
        "meta_ephemeris_type": 0,
        "meta_classification_type": "U",
        "meta_norad_cat_id": 19223,
        "meta_element_set_no": 999,
        "meta_rev_at_epoch": 81034,
        "meta_bstar": 0.00011474,
        "meta_mean_motion_dot": 5.7e-07,
        "meta_mean_motion_ddot": 0,
        "tle_line1": "1 19223U 88052A   25353.26464480  .00000057  00000+0  11474-3 0  9993",
        "tle_line2": "2 19223  89.9870  78.2644 0030033 358.9404  54.7754 13.22936436810340"
      },
      "geometry": {
        "type": "Point",
        "coordinates": [
          78.25579101282337,
          -29.955455690197294
        ]
      }
    },
    {
      "type": "Feature",
      "properties": {
        "norad_id": 19419,
        "name": "OSCAR 25",
        "group": "nnss",
        "lat": -31.172750482166833,
        "lon": -159.752146168613,
        "alt_km": 1036.4959095980767,
        "timestamp": "2025-12-20T03:42:47.661733+00:00",
        "meta_object_name": "OSCAR 25",
        "meta_object_id": "1988-074A",
        "meta_epoch": "2025-12-19T20:22:23.212992",
        "meta_mean_motion": 13.42624628,
        "meta_eccentricity": 0.0094825,
        "meta_inclination": 90.034,
        "meta_ra_of_asc_node": 20.2674,
        "meta_arg_of_pericenter": 225.2515,
        "meta_mean_anomaly": 308.6842,
        "meta_ephemeris_type": 0,
        "meta_classification_type": "U",
        "meta_norad_cat_id": 19419,
        "meta_element_set_no": 999,
        "meta_rev_at_epoch": 82735,
        "meta_bstar": 0.0001467,
        "meta_mean_motion_dot": 9.4e-07,
        "meta_mean_motion_ddot": 0,
        "tle_line1": "1 19419U 88074A   25353.84887978  .00000094  00000+0  14670-3 0  9991",
        "tle_line2": "2 19419  90.0340  20.2674 0094825 225.2515 308.6842 13.42624628827357"
      },
      "geometry": {
        "type": "Point",
        "coordinates": [
          -159.752146168613,
          -31.172750482166833
        ]
      }
    },
    {
      "type": "Feature",
      "properties": {
        "norad_id": 19420,
        "name": "OSCAR 31",
        "group": "nnss",
        "lat": 86.8135076305014,
        "lon": -158.74049902568999,
        "alt_km": 1132.0871836279784,
        "timestamp": "2025-12-20T03:42:47.661743+00:00",
        "meta_object_name": "OSCAR 31",
        "meta_object_id": "1988-074B",
        "meta_epoch": "2025-12-19T04:19:51.591936",
        "meta_mean_motion": 13.42585711,
        "meta_eccentricity": 0.0093141,
        "meta_inclination": 90.0356,
        "meta_ra_of_asc_node": 20.6162,
        "meta_arg_of_pericenter": 221.3224,
        "meta_mean_anomaly": 206.6129,
        "meta_ephemeris_type": 0,
        "meta_classification_type": "U",
        "meta_norad_cat_id": 19420,
        "meta_element_set_no": 999,
        "meta_rev_at_epoch": 82737,
        "meta_bstar": 0.00015294,
        "meta_mean_motion_dot": 9.7e-07,
        "meta_mean_motion_ddot": 0,
        "tle_line1": "1 19420U 88074B   25353.18045824  .00000097  00000+0  15294-3 0  9992",
        "tle_line2": "2 19420  90.0356  20.6162 0093141 221.3224 206.6129 13.42585711827372"
      },
      "geometry": {
        "type": "Point",
        "coordinates": [
          -158.74049902568999,
          86.8135076305014
        ]
      }
    }
  ]
}